{
  "norad_id": 67920,
  "name": "STARLINK-36375",
  "history": [
    {
      "epoch": "2026-03-28T19:45:18.793152",
      "apogee_km": 480.9604032261577,
      "perigee_km": 480.28879329045594,
      "latitude_deg": -7.008665597578234,
      "longitude_deg": -28.97911871992983,
      "semi_major_axis_km": 6858.761598258307,
      "eccentricity": 4.896e-05,
      "inclination_deg": 43.0018,
      "raan_deg": 137.6097,
      "arg_perigee_deg": 302.742,
      "mean_anomaly_deg": 57.3385,
      "mean_motion_rev_day": 15.28390046
    }
  ]
}